{
    "links": {
        "self": "http://www.neowsapp.com/rest/v1/neo/3989098?api_key=iIulBulltgU6a56xZRHN4H3l9WmuAYTsLGpBGhQ2"
    },
    "id": "3989098",
    "neo_reference_id": "3989098",
    "name": "(2020 BS5)",
    "designation": "2020 BS5",
    "nasa_jpl_url": "http://ssd.jpl.nasa.gov/sbdb.cgi?sstr=3989098",
    "absolute_magnitude_h": 23.053,
    "estimated_diameter": {
        "kilometers": {
            "estimated_diameter_min": 0.0651560843,
            "estimated_diameter_max": 0.1456934337
        },
        "meters": {
            "estimated_diameter_min": 65.156084312,
            "estimated_diameter_max": 145.6934336694
        },
        "miles": {
            "estimated_diameter_min": 0.0404861013,
            "estimated_diameter_max": 0.0905296746
        },
        "feet": {
            "estimated_diameter_min": 213.7666876543,
            "estimated_diameter_max": 477.9968449199
        }
    },
    "is_potentially_hazardous_asteroid": false,
    "close_approach_data": [
        {
            "close_approach_date": "1999-12-26",
            "close_approach_date_full": "1999-Dec-26 01:37",
            "epoch_date_close_approach": 946172220000,
            "relative_velocity": {
                "kilometers_per_second": "2.1533374633",
                "kilometers_per_hour": "7752.0148677878",
                "miles_per_hour": "4816.8005715985"
            },
            "miss_distance": {
                "astronomical": "0.2335978891",
                "lunar": "90.8695788599",
                "kilometers": "34945746.645856217",
                "miles": "21714280.0611891146"
            },
            "orbiting_body": "Earth"
        },
        {
            "close_approach_date": "2020-01-02",
            "close_approach_date_full": "2020-Jan-02 06:20",
            "epoch_date_close_approach": 1577946000000,
            "relative_velocity": {
                "kilometers_per_second": "2.1532692473",
                "kilometers_per_hour": "7751.7692902593",
                "miles_per_hour": "4816.6479792725"
            },
            "miss_distance": {
                "astronomical": "0.2246933051",
                "lunar": "87.4056956839",
                "kilometers": "33613639.846220137",
                "miles": "20886547.2783744106"
            },
            "orbiting_body": "Earth"
        },
        {
            "close_approach_date": "2040-01-08",
            "close_approach_date_full": "2040-Jan-08 15:24",
            "epoch_date_close_approach": 2209649040000,
            "relative_velocity": {
                "kilometers_per_second": "2.0641327868",
                "kilometers_per_hour": "7430.8780323983",
                "miles_per_hour": "4617.2586307421"
            },
            "miss_distance": {
                "astronomical": "0.2570212456",
                "lunar": "99.9812645384",
                "kilometers": "38449830.886506872",
                "miles": "23891617.0438719536"
            },
            "orbiting_body": "Earth"
        },
        {
            "close_approach_date": "2057-06-13",
            "close_approach_date_full": "2057-Jun-13 00:11",
            "epoch_date_close_approach": 2759616660000,
            "relative_velocity": {
                "kilometers_per_second": "10.9503521716",
                "kilometers_per_hour": "39421.26781771",
                "miles_per_hour": "24494.8427726209"
            },
            "miss_distance": {
                "astronomical": "0.0741093018",
                "lunar": "28.8285184002",
                "kilometers": "11086593.696467166",
                "miles": "6888889.8809162508"
            },
            "orbiting_body": "Mars"
        }
    ],
    "orbital_data": {
        "orbit_id": "8",
        "orbit_determination_date": "2020-03-17 01:08:46",
        "first_observation_date": "2019-12-29",
        "last_observation_date": "2020-02-21",
        "data_arc_in_days": 54,
        "observations_used": 47,
        "orbit_uncertainty": "6",
        "minimum_orbit_intersection": ".220837",
        "jupiter_tisserand_invariant": "3.720",
        "epoch_osculation": "2459000.5",
        "eccentricity": ".4067386667641795",
        "semi_major_axis": "2.011618618860747",
        "inclination": "3.748277488107985",
        "ascending_node_longitude": "350.0815375680081",
        "orbital_period": "1042.117998860682",
        "perihelion_distance": "1.193415543787327",
        "perihelion_argument": "107.3295746286722",
        "aphelion_distance": "2.829821693934168",
        "perihelion_time": "2458844.578146551262",
        "mean_anomaly": "53.863254739783",
        "mean_motion": ".3454503236615986",
        "equinox": "J2000",
        "orbit_class": {
            "orbit_class_type": "AMO",
            "orbit_class_description": "Near-Earth asteroid orbits similar to that of 1221 Amor",
            "orbit_class_range": "1.017 AU < q (perihelion) < 1.3 AU"
        }
    },
    "is_sentry_object": false
}